NORAD_CAT_ID,OBJECT_NAME,OBJECT_TYPE,EPOCH,MEAN_MOTION,ECCENTRICITY,INCLINATION,RA_OF_ASC_NODE,ARG_OF_PERICENTER,MEAN_ANOMALY,BSTAR,MEAN_MOTION_DOT,MEAN_MOTION_DDOT,TLE_LINE0,TLE_LINE1,TLE_LINE2,SEMIMAJOR_AXIS,PERIOD,APOGEE,PERIGEE,DECAYED
53711.0,STARLINK-4627,PAYLOAD,2022-10-26 14:00:01,15.73190334,0.0002782,53.2155,18.3124,13.2308,215.5174,0.00024833,0.00034363,0.0,0 STARLINK-4627,1 53711U 22107M   22299.58334491  .00034363  00000-0  24833-3 0  9992,2 53711  53.2155  18.3124 0002782  13.2308 215.5174 15.73190334  1300,6727.9230000000025,91.534,351.659,347.916,0.0
53711.0,STARLINK-4627,PAYLOAD,2022-10-26 22:00:00,15.73255175,0.000263,53.215,16.6614,13.4762,304.1942,-0.00045687,-0.00064415,0.0,0 STARLINK-4627,1 53711U 22107M   22299.91667824 -.00064415  00000-0 -45687-3 0  9991,2 53711  53.2150  16.6614 0002630  13.4762 304.1942 15.73255175  8274,6727.738,91.53,351.372,347.833,0.0
53711.0,STARLINK-4627,PAYLOAD,2022-10-27 08:00:01,15.73221956,0.0002652,53.2152,14.5995,19.367,139.5157,0.0002201,0.00030413,0.0,0 STARLINK-4627,1 53711U 22107M   22300.33334491  .00030413  00000-0  22010-3 0  9995,2 53711  53.2152  14.5995 0002652  19.3670 139.5157 15.73221956  8348,6727.833000000001,91.532,351.482,347.913,0.0
53711.0,STARLINK-4627,PAYLOAD,2022-10-27 14:00:01,15.73254431,0.0002873,53.2152,13.3637,16.1093,119.5634,-0.00020572,-0.00029467,0.0,0 STARLINK-4627,1 53711U 22107M   22300.58335648 -.00029467  00000-0 -20572-3 0  9997,2 53711  53.2152  13.3637 0002873  16.1093 119.5634 15.73254431  1308,6727.74,91.53,351.538,347.672,0.0
53711.0,STARLINK-4627,PAYLOAD,2022-10-27 22:00:00,15.73257344,0.0002725,53.2154,11.7126,11.2632,213.3222,-0.00061652,-0.00086493,0.0,0 STARLINK-4627,1 53711U 22107M   22300.91667824 -.00086493  00000-0 -61652-3 0  9994,2 53711  53.2154  11.7126 0002725  11.2632 213.3222 15.73257344  1308,6727.732,91.53,351.43,347.76300000000015,0.0
53711.0,STARLINK-4627,PAYLOAD,2022-10-28 08:00:01,15.73256908,0.0002762,53.2152,9.6506,9.2088,56.6446,-0.00055676,-0.00078244,0.0,0 STARLINK-4627,1 53711U 22107M   22301.33335648 -.00078244  00000-0 -55676-3 0  9991,2 53711  53.2152   9.6506 0002762   9.2088  56.6446 15.73256908  8507,6727.733,91.53,351.456,347.74,0.0
53711.0,STARLINK-4627,PAYLOAD,2022-10-28 14:00:01,15.73171701,0.0002982,53.2151,8.4147,9.0467,33.5418,0.00068207,0.00096102,0.0,0 STARLINK-4627,1 53711U 22107M   22301.58335648  .00096102  00000-0  68207-3 0  9993,2 53711  53.2151   8.4147 0002982   9.0467  33.5418 15.73171701  1308,6727.976,91.535,351.847,347.835,0.0
53711.0,STARLINK-4627,PAYLOAD,2022-10-28 22:00:01,15.73264597,0.0002847,53.2147,6.7634,9.4203,122.1008,-0.00074282,-0.00103907,0.0,0 STARLINK-4627,1 53711U 22107M   22301.91668981 -.00103907  00000-0 -74282-3 0  9993,2 53711  53.2147   6.7634 0002847   9.4203 122.1008 15.73264597  1303,6727.7109999999975,91.529,351.491,347.661,0.0
53711.0,STARLINK-4627,PAYLOAD,2022-10-29 08:00:01,15.73223792,0.0002836,53.2148,4.7018,8.2098,324.4576,-0.00047237,-0.00066478,0.0,0 STARLINK-4627,1 53711U 22107M   22302.33334491 -.00066478  00000-0 -47237-3 0  9997,2 53711  53.2148   4.7018 0002836   8.2098 324.4576 15.73223792  8659,6727.8269999999975,91.532,351.6,347.784,0.0
53711.0,STARLINK-4627,PAYLOAD,2022-10-29 12:00:00,15.73162335,0.0003057,53.2148,3.878,7.1176,190.0293,0.00037859,0.00052769,0.0,0 STARLINK-4627,1 53711U 22107M   22302.50001157  .00052769  00000-0  37859-3 0  9991,2 53711  53.2148   3.8780 0003057   7.1176 190.0293 15.73162335  1309,6728.003000000002,91.535,351.9240000000001,347.811,0.0
53711.0,STARLINK-4627,PAYLOAD,2022-10-29 22:00:01,15.73261064,0.0002987,53.2151,1.8144,9.0335,29.3285,-0.000195,-0.00027978,0.0,0 STARLINK-4627,1 53711U 22107M   22302.91668981 -.00027978  00000-0 -19500-3 0  9999,2 53711  53.2151   1.8144 0002987   9.0335  29.3285 15.73261064  1308,6727.721,91.53,351.596,347.577,0.0
53711.0,STARLINK-4627,PAYLOAD,2022-10-30 00:00:00,15.7325932,0.000297,53.215,1.4016,10.564,139.9818,-0.00024071,-0.00034361,0.0,0 STARLINK-4627,1 53711U 22107M   22303.00001157 -.00034361  00000-0 -24071-3 0  9999,2 53711  53.2150   1.4016 0002970  10.5640 139.9818 15.73259320  8768,6727.726,91.53,351.589,347.593,0.0
53711.0,STARLINK-4627,PAYLOAD,2022-10-30 14:00:01,15.73170927,0.0003303,53.2149,358.5166,12.853,203.3895,-0.00027782,-0.00039395,0.0,0 STARLINK-4627,1 53711U 22107M   22303.58334491 -.00039395  00000-0 -27782-3 0  9996,2 53711  53.2149 358.5166 0003303  12.8530 203.3895 15.73170927  1301,6727.978,91.535,352.065,347.621,0.0
53711.0,STARLINK-4627,PAYLOAD,2022-10-30 22:00:01,15.73082127,0.0003198,53.2163,356.8663,15.2398,289.9631,-0.00028995,-0.00040925,0.0,0 STARLINK-4627,1 53711U 22107M   22303.91668981 -.00040925  00000-0 -28995-3 0  9995,2 53711  53.2163 356.8663 0003198  15.2398 289.9631 15.73082127  1303,6728.231,91.54,352.24800000000016,347.945,0.0
53711.0,STARLINK-4627,PAYLOAD,2022-10-31 14:00:01,15.72910615,0.0003323,53.2171,353.5734,303.0967,179.6593,-0.0078879,-0.0099125,0.0,0 STARLINK-4627,1 53711U 22107M   22304.58334491 -.00991250  00000-0 -78879-2 0  9996,2 53711  53.2171 353.5734 0003323 303.0967 179.6593 15.72910615  1308,6728.72,91.55,352.821,348.349,0.0
53711.0,STARLINK-4627,PAYLOAD,2022-10-31 22:00:01,15.72193059,0.0005227,53.2176,351.9263,278.8675,292.1059,-0.010075,-0.01222885,0.0,0 STARLINK-4627,1 53711U 22107M   22304.91668981 -.01222885  00000-0 -10075-1 0  9992,2 53711  53.2176 351.9263 0005227 278.8675 292.1059 15.72193059  1305,6730.768,91.592,356.151,349.11400000000015,0.0
53711.0,STARLINK-4627,PAYLOAD,2022-11-01 14:00:01,15.70462002,0.0004927,53.2173,348.6432,272.2422,111.9699,-0.010868,-0.01225083,0.0,0 STARLINK-4627,1 53711U 22107M   22305.58334491 -.01225083  00000-0 -10868-1 0  9995,2 53711  53.2173 348.6432 0004927 272.2422 111.9699 15.70462002  1300,6735.7130000000025,91.693,360.896,354.259,0.0
53711.0,STARLINK-4627,PAYLOAD,2022-11-01 22:00:00,15.69596176,0.0003952,53.2175,347.0035,270.7893,198.5143,-0.01137,-0.01234194,0.0,0 STARLINK-4627,1 53711U 22107M   22305.91667824 -.01234194  00000-0 -11370-1 0  9993,2 53711  53.2175 347.0035 0003952 270.7893 198.5143 15.69596176  9228,6738.189,91.743,362.717,357.392,0.0
53711.0,STARLINK-4627,PAYLOAD,2022-11-02 14:00:01,15.67841979,8.66e-05,53.2173,343.7341,84.2074,192.1517,-0.011884,-0.01201305,0.0,0 STARLINK-4627,1 53711U 22107M   22306.58334491 -.01201305  00000-0 -11884-1 0  9996,2 53711  53.2173 343.7341 0000866  84.2074 192.1517 15.67841979  1307,6743.215,91.846,365.664,364.496,0.0
53711.0,STARLINK-4627,PAYLOAD,2022-11-02 22:00:00,15.66975945,9.54e-05,53.2175,342.0996,79.2753,279.0451,-0.012355,-0.0120496,0.0,0 STARLINK-4627,1 53711U 22107M   22306.91667824 -.01204960  00000-0 -12355-1 0  9996,2 53711  53.2175 342.0996 0000954  79.2753 279.0451 15.66975945  1305,6745.699000000001,91.897,368.207,366.92,0.0
53711.0,STARLINK-4627,PAYLOAD,2022-11-03 06:00:02,15.66112232,0.0001132,53.2173,340.4686,73.732,5.569,-0.01287,-0.01211195,0.0,0 STARLINK-4627,1 53711U 22107M   22307.25002315 -.01211195  00000-0 -12870-1 0  9992,2 53711  53.2173 340.4686 0001132  73.7320   5.5690 15.66112232  9430,6748.179,91.947,370.8080000000001,369.28,0.0
53711.0,STARLINK-4627,PAYLOAD,2022-11-03 14:00:01,15.65245269,0.0001200999999999,53.2174,338.842,70.9867,88.1215,-0.013325,-0.01210893,0.0,0 STARLINK-4627,1 53711U 22107M   22307.58334491 -.01210893  00000-0 -13325-1 0  9991,2 53711  53.2174 338.8420 0001201  70.9867  88.1215 15.65245269  1304,6750.67,91.998,373.346,371.725,0.0
53711.0,STARLINK-4627,PAYLOAD,2022-11-03 22:00:00,15.64371756,0.0001153,53.2176,337.2146,82.9231,155.0196,-0.0137,-0.01202947,0.0,0 STARLINK-4627,1 53711U 22107M   22307.91667824 -.01202947  00000-0 -13700-1 0  9995,2 53711  53.2176 337.2146 0001153  82.9231 155.0196 15.64371756  1300,6753.183000000001,92.05,375.827,374.27,0.0
53711.0,STARLINK-4627,PAYLOAD,2022-11-04 14:00:01,15.62637364,0.0001032,53.2171,333.9684,65.9687,326.5067,-0.014697,-0.01204441,0.0,0 STARLINK-4627,1 53711U 22107M   22308.58334491 -.01204441  00000-0 -14697-1 0  9997,2 53711  53.2171 333.9684 0001032  65.9687 326.5067 15.62637364  9642,6758.179,92.152,380.742,379.347,0.0
53711.0,STARLINK-4627,PAYLOAD,2022-11-04 22:00:01,15.61768114,0.0001169,53.2172,332.3433,65.7095,42.5368,-0.015191,-0.01203338,0.0,0 STARLINK-4627,1 53711U 22107M   22308.91668981 -.01203338  00000-0 -15191-1 0  9992,2 53711  53.2172 332.3433 0001169  65.7095  42.5368 15.61768114  1301,6760.687,92.203,383.342,381.761,0.0
53711.0,STARLINK-4627,PAYLOAD,2022-11-05 06:00:00,15.60924802,0.000121,53.217,330.7231,90.7571,92.0727,-0.016173,-0.01235957,0.0,0 STARLINK-4627,1 53711U 22107M   22309.25001157 -.01235957  00000-0 -16173-1 0  9999,2 53711  53.2170 330.7231 0001210  90.7571  92.0727 15.60924802  9743,6763.121,92.253,385.805,384.168,0.0
53711.0,STARLINK-4627,PAYLOAD,2022-11-05 14:00:01,15.60041911,0.0001139,53.2166,329.1058,81.2618,175.2565,-0.01642,-0.01215006,0.0,0 STARLINK-4627,1 53711U 22107M   22309.58335648 -.01215006  00000-0 -16420-1 0  9998,2 53711  53.2166 329.1058 0001139  81.2618 175.2565 15.60041911  1303,6765.6730000000025,92.305,388.309,386.767,0.0
53711.0,STARLINK-4627,PAYLOAD,2022-11-05 22:00:01,15.591814800000002,0.0001,53.2171,327.4875,71.2617,257.829,-0.017122,-0.01224576,0.0,0 STARLINK-4627,1 53711U 22107M   22309.91668981 -.01224576  00000-0 -17122-1 0  9996,2 53711  53.2171 327.4875 0001000  71.2617 257.8290 15.59181480  1308,6768.1619999999975,92.356,390.704,389.35,0.0
53711.0,STARLINK-4627,PAYLOAD,2022-11-06 14:00:01,15.57464282,0.000124,53.2165,324.2626,65.4352,45.5987,-0.018658,-0.01267395,0.0,0 STARLINK-4627,1 53711U 22107M   22310.58334491 -.01267395  00000-0 -18658-1 0  9998,2 53711  53.2165 324.2626 0001240  65.4352  45.5987 15.57464282  9953,6773.136,92.458,395.841,394.161,0.0
